     3.02           N: GNSS NAV DATA    C: BEIDOU           RINEX VERSION / TYPE
Spider v7.5.1.8670  SMO                 20210712 150400 UTC PGM / RUN BY / DATE
BDSA   6.5193D-09  2.9802D-08 -2.9802D-07  4.1723D-07       IONOSPHERIC CORR
BDSB   1.0650D+05  2.9491D+05 -8.5197D+05  5.2429D+05       IONOSPHERIC CORR
BDUT -7.4505805969D-09 0.000000000D+00 140345  810          TIME SYSTEM CORR
     4     4   573     6                                    LEAP SECONDS
                                                            END OF HEADER
C60 2021 07 12 14 00 00-9.661307558417D-07-2.975397705995D-13 0.000000000000D+00
     1.000000000000D+00 3.804375000000D+02 1.231122759293D-09 1.882931408291D+00
     1.230556517839D-05 4.169597523287D-04 2.027628943324D-05 6.493422876358D+03
     1.368000000000D+05 2.584420144558D-07 6.503660936040D-01-7.962808012962D-08
     1.279610172214D-01-6.166093750000D+02 2.556949579579D+00-1.000041646715D-10
    -6.850285338977D-10                    8.100000000000D+02                   
     2.000000000000D+00 0.000000000000D+00 4.980000056776D-08 4.980000056776D-08
     1.368004000000D+05 1.000000000000D+00                                      
C38 2021 07 12 14 00 00 1.612625783309D-04 2.613020910758D-12 0.000000000000D+00
     1.000000000000D+00-3.391093750000D+02 1.497919566162D-09 2.185597942699D-01
    -1.133745536208D-05 1.875584945083D-03-1.305714249611D-05 6.493089485168D+03
     1.368000000000D+05 2.887099981308D-08 2.226553020436D+00-1.904554665089D-07
     9.782826803718D-01 6.299687500000D+02-3.060325488646D+00-2.659039433084D-09
    -3.864446818103D-10                    8.100000000000D+02                   
     2.000000000000D+00 0.000000000000D+00 5.199999986161D-09 5.199999986161D-09
     1.368000000000D+05 1.000000000000D+00                                      
C39 2021 07 12 14 00 00 3.237801138312D-05 2.859934511434D-13 0.000000000000D+00
     1.000000000000D+00 1.195000000000D+02 1.033971686049D-09-2.016330593794D+00
     3.880821168423D-06 1.962436595932D-03 1.755729317665D-05 6.493368671417D+03
     1.368000000000D+05-4.838220775127D-07-1.995865253468D+00 9.220093488693D-08
     9.609817181630D-01-2.903593750000D+02-2.980674226440D+00-1.666855098392D-09
     1.090759704780D-09                    8.100000000000D+02                   
     2.000000000000D+00 0.000000000000D+00 4.199999903420D-09 4.199999903420D-09
     1.368000000000D+05 1.000000000000D+00                                      
C40 2021 07 12 14 00 00 1.798372250050D-04 3.625544309216D-12 0.000000000000D+00
     1.000000000000D+00 3.201875000000D+02 5.632377342302D-10 1.946881403356D+00
     1.055235043168D-05 2.054830896668D-03 2.275360748172D-05 6.493512327194D+03
     1.368000000000D+05 5.387701094151D-07 1.881343415105D-01 7.185153663158D-07
     1.009657429450D+00-4.486875000000D+02-2.862455645293D+00-1.543635774759D-09
    -7.918187217015D-10                    8.100000000000D+02                   
     2.000000000000D+00 0.000000000000D+00 1.199999988266D-09 1.199999988266D-09
     1.368000000000D+05 1.000000000000D+00                                      
C41 2021 07 11 19 00 00-9.584371000528D-04-5.862865748441D-12 0.000000000000D+00
     1.000000000000D+00-1.097031250000D+02 3.549433635897D-09-7.930950976742D-01
    -5.422160029411D-06 1.438430161215D-03 1.034280285239D-05 5.282631849289D+03
     6.840000000000D+04-4.656612873077D-09-2.898422380115D+00-5.727633833885D-08
     9.643938209765D-01 1.513281250000D+02-1.561824190235D+00-6.578845468397D-09
     6.785996764513D-11                    8.100000000000D+02                   
     2.000000000000D+00 0.000000000000D+00-2.330000015149D-08-2.330000015149D-08
     6.840000000000D+04 1.000000000000D+00                                      
C42 2021 07 12 14 00 00-9.190187556669D-04-3.405276061130D-12 0.000000000000D+00
     1.000000000000D+00-1.094062500000D+02 3.410141946603D-09-2.832760116972D+00
    -5.490146577358D-06 1.339360373095D-03 1.109018921852D-05 5.282628116608D+03
     1.368000000000D+05 5.634501576424D-08-2.898326180085D+00-4.237517714500D-08
     9.644433100322D-01 1.428750000000D+02-1.255464188517D+00-6.488127368698D-09
    -8.214627589265D-11                    8.100000000000D+02                   
     2.000000000000D+00 0.000000000000D+00-3.250000091271D-08-3.250000091271D-08
     1.379160000000D+05 1.000000000000D+00                                      
C43 2021 07 12 13 00 00-8.179319556803D-04-1.746425226656D-11 0.000000000000D+00
     1.000000000000D+00 1.546406250000D+02 3.898019684812D-09 2.308676517644D+00
     7.544644176960D-06 5.025317659602D-04 3.769062459469D-06 5.282620512009D+03
     1.332000000000D+05-6.053596735001D-09 1.277403497806D+00-1.303851604462D-08
     9.601643682771D-01 2.843281250000D+02 7.159353648959D-01-7.006720537106D-09
     2.542963062346D-10                    8.100000000000D+02                   
     2.000000000000D+00 0.000000000000D+00-3.500000067547D-09-3.500000067547D-09
     1.332000000000D+05 1.000000000000D+00                                      
C44 2021 07 12 12 00 00 2.855696948245D-04 1.919531200656D-11 0.000000000000D+00
     1.000000000000D+00 1.353437500000D+02 4.004452325290D-09-2.764802987405D+00
     6.760470569134D-06 6.934142438695D-04 3.256835043430D-06 5.282622957230D+03
     1.296000000000D+05 5.075708031654D-08 1.277453370146D+00-5.774199962616D-08
     9.606161700450D-01 2.929218750000D+02 5.713937234021D-01-7.077437746972D-09
     1.607209781929D-10                    8.100000000000D+02                   
     2.000000000000D+00 0.000000000000D+00-1.500000013088D-09-1.500000013088D-09
     1.296000000000D+05 1.000000000000D+00                                      
C45 2021 07 12 14 00 00 4.914461169392D-04 1.012434580616D-11 0.000000000000D+00
     1.000000000000D+00-1.940625000000D+01 4.289107291555D-09 2.510689058266D+00
    -1.173466444016D-06 4.445491358638D-04 5.125533789396D-06 5.282613018036D+03
     1.368000000000D+05 4.004687070847D-08-7.932490420066D-01 2.374872565269D-08
     9.544175125775D-01 2.514687500000D+02-8.385457329099D-01-7.001720092603D-09
    -2.107230639981D-10                    8.100000000000D+02                   
     2.000000000000D+00 0.000000000000D+00-2.720000047418D-08-2.720000047418D-08
     1.368000000000D+05 1.000000000000D+00                                      
C46 2021 07 12 03 00 00 1.830359688029D-04-1.725730669477D-11 0.000000000000D+00
     1.000000000000D+00-1.675000000000D+01 4.424827171334D-09-1.574710308525D+00
    -7.529743015766D-07 7.023846264929D-04 5.645677447319D-06 5.282616661072D+03
     9.720000000000D+04 4.796311259270D-08-7.924515673257D-01-5.541369318962D-08
     9.544625792318D-01 2.414218750000D+02-5.611627750935D-01-6.971004662404D-09
    -5.153786286627D-10                    8.100000000000D+02                   
     2.000000000000D+00 0.000000000000D+00-2.099999996119D-08-2.099999996119D-08
     9.720000000000D+04 1.000000000000D+00                                      
C56 2021 07 14 01 00 00 1.299607101828D-04 3.799627279477D-12 0.000000000000D+00
     2.900000000000D+01 5.868750000000D+01 1.208978916978D-09 2.457763249579D+00
     2.125743776560D-06 4.581383429468D-03 2.644862979650D-05 6.493563993454D+03
     2.628000000000D+05-1.331791281700D-07 2.517593247476D+00-2.030283212662D-07
     9.120457376573D-01-6.000468750000D+02-2.988816838710D+00-1.677212702056D-09
    -1.258266713045D-09                    8.100000000000D+02                   
     2.000000000000D+00 1.000000000000D+00-3.010000071413D-08 0.000000000000D+00
    -3.027000000000D+04 2.900000000000D+01                                      
C57 2021 07 13 20 00 00 1.298927236348D-04 3.801403636317D-12 0.000000000000D+00
     2.900000000000D+01 1.277968750000D+02 3.586577923542D-09 3.034701944523D+00
     6.191432476044D-06 5.848238943145D-04 2.180226147175D-06 5.282625308990D+03
     2.448000000000D+05-3.166496753693D-08-2.251441212695D+00 4.004687070847D-08
     9.763719645314D-01 3.246406250000D+02-5.644390679071D-01-6.963861487463D-09
     1.882221323246D-10                    8.100000000000D+02                   
     2.000000000000D+00 1.000000000000D+00-1.029999996405D-08 0.000000000000D+00
     1.383000000000D+04 2.900000000000D+01                                      
C58 2021 07 14 10 00 00 2.809066791087D-05 3.907985046681D-13 0.000000000000D+00
     2.900000000000D+01-2.070312500000D+01 3.305494766792D-09 3.558999757483D-01
    -9.997747838497D-07 4.802315961570D-04 9.569805115461D-06 5.282617879868D+03
     2.952000000000D+05-1.164153218269D-08-2.126947333265D+00-9.778887033463D-09
     9.763159625644D-01 1.758125000000D+02 4.195907256379D-02-6.678135378024D-09
     2.464388415557D-11                    8.100000000000D+02                   
     2.000000000000D+00 1.000000000000D+00-8.999999856485D-09 0.000000000000D+00
     5.067000000000D+04 2.800000000000D+01                                      
C59 2021 07 12 14 00 00-3.929017111659D-07-1.554312234475D-13 0.000000000000D+00
     1.000000000000D+00-9.396875000000D+01 1.081830736105D-09 8.239484466572D-01
    -3.202818334103D-06 2.879720414057D-04 2.116616815329D-05 6.493353979111D+03
     1.368000000000D+05-6.053596735001D-09 3.512090221341D-01 1.210719347000D-08
     8.704739273045D-02-6.429531250000D+02-1.323306253726D+00-1.750072829709D-11
    -6.828855814156D-10                    8.100000000000D+02                   
     2.000000000000D+00 0.000000000000D+00 4.219999993893D-08 4.219999993893D-08
     1.368004000000D+05 1.000000000000D+00                                      
